{
  "norad_id": 43641,
  "name": "SAOCOM 1A",
  "history": [
    {
      "epoch": "2026-03-28T22:24:14.849280Z",
      "apogee_km": 623.5242884079371,
      "perigee_km": 621.5013806317547,
      "latitude_deg": 2.8609670894558716e-06,
      "longitude_deg": 113.42598695532776,
      "height_km": 625.4465450774737,
      "semi_major_axis_km": 7000.649834519846,
      "eccentricity": 0.00014448,
      "inclination_deg": 97.8906,
      "raan_deg": 275.8347,
      "arg_perigee_deg": 84.969,
      "mean_anomaly_deg": 275.1688,
      "mean_motion_rev_day": 14.8216048
    },
    {
      "epoch": "2026-03-29T04:53:06.434880Z",
      "apogee_km": 623.518063009964,
      "perigee_km": 621.5102762545139,
      "latitude_deg": -1.820055910464506e-06,
      "longitude_deg": 16.210882630122676,
      "height_km": 625.4702778792847,
      "semi_major_axis_km": 7000.651169632239,
      "eccentricity": 0.0001434,
      "inclination_deg": 97.8906,
      "raan_deg": 276.1007,
      "arg_perigee_deg": 86.2121,
      "mean_anomaly_deg": 273.9256,
      "mean_motion_rev_day": 14.82160056
    },
    {
      "epoch": "2026-03-30T03:34:06.737376Z",
      "apogee_km": 623.5292697017703,
      "perigee_km": 621.4808818304018,
      "latitude_deg": -2.1737516488198275e-05,
      "longitude_deg": 35.96005070313766,
      "height_km": 625.449899743024,
      "semi_major_axis_km": 7000.642075766086,
      "eccentricity": 0.0001463,
      "inclination_deg": 97.8904,
      "raan_deg": 277.0327,
      "arg_perigee_deg": 85.6565,
      "mean_anomaly_deg": 274.4815,
      "mean_motion_rev_day": 14.82162944
    },
    {
      "epoch": "2026-03-30T06:48:32.472288Z",
      "apogee_km": 623.5248492615556,
      "perigee_km": 621.4823423613216,
      "latitude_deg": -3.7721741518215013e-06,
      "longitude_deg": -12.647262280732336,
      "height_km": 625.4775257682279,
      "semi_major_axis_km": 7000.640595811438,
      "eccentricity": 0.00014588,
      "inclination_deg": 97.8904,
      "raan_deg": 277.1657,
      "arg_perigee_deg": 87.2797,
      "mean_anomaly_deg": 272.8583,
      "mean_motion_rev_day": 14.82163414
    },
    {
      "epoch": "2026-03-30T13:17:23.917920Z",
      "apogee_km": 623.5200897554696,
      "perigee_km": 621.4789841667534,
      "latitude_deg": 2.0717945379062806e-05,
      "longitude_deg": -109.86148559546795,
      "height_km": 625.459088019758,
      "semi_major_axis_km": 7000.636536961111,
      "eccentricity": 0.00014578,
      "inclination_deg": 97.8902,
      "raan_deg": 277.432,
      "arg_perigee_deg": 86.4691,
      "mean_anomaly_deg": 273.6689,
      "mean_motion_rev_day": 14.82164703
    },
    {
      "epoch": "2026-03-30T23:00:41.092416Z",
      "apogee_km": 623.5363375359884,
      "perigee_km": 621.4493097729592,
      "latitude_deg": -4.6125359943213266e-05,
      "longitude_deg": 104.31721844037627,
      "height_km": 625.4435183022505,
      "semi_major_axis_km": 7000.6298236544735,
      "eccentricity": 0.00014906,
      "inclination_deg": 97.8904,
      "raan_deg": 277.8315,
      "arg_perigee_deg": 86.0623,
      "mean_anomaly_deg": 274.076,
      "mean_motion_rev_day": 14.82166835
    },
    {
      "epoch": "2026-03-31T20:04:28.443648Z",
      "apogee_km": 623.5351044518957,
      "perigee_km": 621.4545166777962,
      "latitude_deg": 8.090137245893766e-06,
      "longitude_deg": 148.3702824282606,
      "height_km": 625.4441607878325,
      "semi_major_axis_km": 7000.631810564846,
      "eccentricity": 0.0001486,
      "inclination_deg": 97.8902,
      "raan_deg": 278.6969,
      "arg_perigee_deg": 85.9756,
      "mean_anomaly_deg": 274.1627,
      "mean_motion_rev_day": 14.82166204
    }
  ]
}